{"type": "FeatureCollection", "features": [ {"type": "Feature", "properties": {"norad_id": 34971, "name": "COSMOS 2251 DEB", "group": "cosmos-2251-debris", "lat": -59.40090660953112, "lon": -84.20397449049992, "alt_km": 741.204163051134, "timestamp": "2025-12-02T07:10:09.511994+00:00", "meta": {"OBJECT_NAME": "COSMOS 2251 DEB", "OBJECT_ID": "1993-036AFA", "EPOCH": "2025-11-29T07:11:19.070592", "MEAN_MOTION": 14.55599596, "ECCENTRICITY": 0.00702055, "INCLINATION": 73.9779, "RA_OF_ASC_NODE": 310.5688, "ARG_OF_PERICENTER": 179.6355, "MEAN_ANOMALY": 246.2889, "EPHEMERIS_TYPE": 0, "CLASSIFICATION_TYPE": "U", "NORAD_CAT_ID": 34971, "ELEMENT_SET_NO": 999, "REV_AT_EPOCH": 65977, "BSTAR": 0.00017615649, "MEAN_MOTION_DOT": 7.63e-06, "MEAN_MOTION_DDOT": 0}, "tle": {"line1": "1 34971U 93036AFA 25333.29952628  .00000763  00000+0  17616-3 0  9993", "line2": "2 34971  73.9779 310.5688 0070205 179.6355 246.2889 14.55599596659770"}}, "geometry": {"type": "Point", "coordinates": [-84.20397449049992, -59.40090660953112]}}, {"type": "Feature", "properties": {"norad_id": 34972, "name": "COSMOS 2251 DEB", "group": "cosmos-2251-debris", "lat": -72.64904983927893, "lon": -42.94480429728263, "alt_km": 639.459480321364, "timestamp": "2025-12-02T07:10:09.512004+00:00", "meta": {"OBJECT_NAME": "COSMOS 2251 DEB", "OBJECT_ID": "1993-036AFB", "EPOCH": "2025-11-30T17:09:56.666016", "MEAN_MOTION": 14.72523272, "ECCENTRICITY": 0.00346019, "INCLINATION": 73.9868, "RA_OF_ASC_NODE": 73.3405, "ARG_OF_PERICENTER": 233.592, "MEAN_ANOMALY": 278.6357, "EPHEMERIS_TYPE": 0, "CLASSIFICATION_TYPE": "U", "NORAD_CAT_ID": 34972, "ELEMENT_SET_NO": 999, "REV_AT_EPOCH": 87473, "BSTAR": 0.0017766366, "MEAN_MOTION_DOT": 0.00011381, "MEAN_MOTION_DDOT": 0}, "tle": {"line1": "1 34972U 93036AFB 25334.71523919  .00011381  00000+0  17766-2 0  9992", "line2": "2 34972  73.9868  73.3405 0034601 233.5920 278.6357 14.72523272874730"}}, "geometry": {"type": "Point", "coordinates": [-42.94480429728263, -72.64904983927893]}}, {"type": "Feature", "properties": {"norad_id": 34976, "name": "COSMOS 2251 DEB", "group": "cosmos-2251-debris", "lat": -37.641518324922096, "lon": 159.4098598519449, "alt_km": 678.0785592109514, "timestamp": "2025-12-02T07:10:09.512014+00:00", "meta": {"OBJECT_NAME": "COSMOS 2251 DEB", "OBJECT_ID": "1993-036AFF", "EPOCH": "2025-12-01T17:59:04.277184", "MEAN_MOTION": 14.76199051, "ECCENTRICITY": 0.0047808, "INCLINATION": 74.0579, "RA_OF_ASC_NODE": 327.7476, "ARG_OF_PERICENTER": 16.8346, "MEAN_ANOMALY": 164.428, "EPHEMERIS_TYPE": 0, "CLASSIFICATION_TYPE": "U", "NORAD_CAT_ID": 34976, "ELEMENT_SET_NO": 999, "REV_AT_EPOCH": 88111, "BSTAR": 0.0012966, "MEAN_MOTION_DOT": 9.118e-05, "MEAN_MOTION_DDOT": 0}, "tle": {"line1": "1 34976U 93036AFF 25335.74935506  .00009118  00000+0  12966-2 0  9991", "line2": "2 34976  74.0579 327.7476 0047808  16.8346 164.4280 14.76199051881111"}}, "geometry": {"type": "Point", "coordinates": [159.4098598519449, -37.641518324922096]}}, {"type": "Feature", "properties": {"norad_id": 34979, "name": "COSMOS 2251 DEB", "group": "cosmos-2251-debris", "lat": 15.977012483812786, "lon": 103.09939406187921, "alt_km": 664.1961785074318, "timestamp": "2025-12-02T07:10:09.512024+00:00", "meta": {"OBJECT_NAME": "COSMOS 2251 DEB", "OBJECT_ID": "1993-036AFJ", "EPOCH": "2025-12-01T14:12:03.489984", "MEAN_MOTION": 14.78975635, "ECCENTRICITY": 0.00491958, "INCLINATION": 74.039, "RA_OF_ASC_NODE": 289.1892, "ARG_OF_PERICENTER": 9.4686, "MEAN_ANOMALY": 350.7405, "EPHEMERIS_TYPE": 0, "CLASSIFICATION_TYPE": "U", "NORAD_CAT_ID": 34979, "ELEMENT_SET_NO": 999, "REV_AT_EPOCH": 88055, "BSTAR": 0.0014862566, "MEAN_MOTION_DOT": 0.00011185, "MEAN_MOTION_DDOT": 0}, "tle": {"line1": "1 34979U 93036AFJ 25335.59170706  .00011185  00000+0  14863-2 0  9995", "line2": "2 34979  74.0390 289.1892 0049195   9.4686 350.7405 14.78975635880552"}}, "geometry": {"type": "Point", "coordinates": [103.09939406187921, 15.977012483812786]}}, {"type": "Feature", "properties": {"norad_id": 34990, "name": "COSMOS 2251 DEB", "group": "cosmos-2251-debris", "lat": -28.795428698704477, "lon": 99.73753244379671, "alt_km": 762.7858643937343, "timestamp": "2025-12-02T07:10:09.512034+00:00", "meta": {"OBJECT_NAME": "COSMOS 2251 DEB", "OBJECT_ID": "1993-036AFN", "EPOCH": "2025-11-30T02:35:36.793536", "MEAN_MOTION": 14.42317714, "ECCENTRICITY": 0.00161518, "INCLINATION": 74.0452, "RA_OF_ASC_NODE": 274.7497, "ARG_OF_PERICENTER": 338.715, "MEAN_ANOMALY": 21.3332, "EPHEMERIS_TYPE": 0, "CLASSIFICATION_TYPE": "U", "NORAD_CAT_ID": 34990, "ELEMENT_SET_NO": 999, "REV_AT_EPOCH": 87164, "BSTAR": 0.00051741405, "MEAN_MOTION_DOT": 1.685e-05, "MEAN_MOTION_DDOT": 0}, "tle": {"line1": "1 34990U 93036AFN 25334.10806474  .00001685  00000+0  51741-3 0  9993", "line2": "2 34990  74.0452 274.7497 0016151 338.7150  21.3332 14.42317714871644"}}, "geometry": {"type": "Point", "coordinates": [99.73753244379671, -28.795428698704477]}}, {"type": "Feature", "properties": {"norad_id": 34997, "name": "COSMOS 2251 DEB", "group": "cosmos-2251-debris", "lat": -70.1450872345347, "lon": -155.93487621759897, "alt_km": 701.869685933083, "timestamp": "2025-12-02T07:10:09.512045+00:00", "meta": {"OBJECT_NAME": "COSMOS 2251 DEB", "OBJECT_ID": "1993-036AFV", "EPOCH": "2025-11-29T18:09:59.976288", "MEAN_MOTION": 14.45289096, "ECCENTRICITY": 0.00981723, "INCLINATION": 73.8805, "RA_OF_ASC_NODE": 335.6343, "ARG_OF_PERICENTER": 312.7593, "MEAN_ANOMALY": 46.5333, "EPHEMERIS_TYPE": 0, "CLASSIFICATION_TYPE": "U", "NORAD_CAT_ID": 34997, "ELEMENT_SET_NO": 999, "REV_AT_EPOCH": 70559, "BSTAR": 0.0014679127, "MEAN_MOTION_DOT": 5.442e-05, "MEAN_MOTION_DDOT": 0}, "tle": {"line1": "1 34997U 93036AFV 25333.75694417  .00005442  00000+0  14679-2 0  9995", "line2": "2 34997  73.8805 335.6343 0098172 312.7593  46.5333 14.45289096705597"}}, "geometry": {"type": "Point", "coordinates": [-155.93487621759897, -70.1450872345347]}}, {"type": "Feature", "properties": {"norad_id": 34998, "name": "COSMOS 2251 DEB", "group": "cosmos-2251-debris", "lat": -3.9332983459742894, "lon": 178.4673849072971, "alt_km": 718.5579887315907, "timestamp": "2025-12-02T07:10:09.512055+00:00", "meta": {"OBJECT_NAME": "COSMOS 2251 DEB", "OBJECT_ID": "1993-036AFW", "EPOCH": "2025-12-01T00:24:24.028128", "MEAN_MOTION": 14.49204585, "ECCENTRICITY": 0.00207467, "INCLINATION": 74.0099, "RA_OF_ASC_NODE": 182.0038, "ARG_OF_PERICENTER": 328.8947, "MEAN_ANOMALY": 182.5141, "EPHEMERIS_TYPE": 0, "CLASSIFICATION_TYPE": "U", "NORAD_CAT_ID": 34998, "ELEMENT_SET_NO": 999, "REV_AT_EPOCH": 87250, "BSTAR": 0.00053250873, "MEAN_MOTION_DOT": 2.006e-05, "MEAN_MOTION_DDOT": 0}, "tle": {"line1": "1 34998U 93036AFW 25335.01694477  .00002006  00000+0  53251-3 0  9996", "line2": "2 34998  74.0099 182.0038 0020746 328.8947 182.5141 14.49204585872502"}}, "geometry": {"type": "Point", "coordinates": [178.4673849072971, -3.9332983459742894]}}, {"type": "Feature", "properties": {"norad_id": 35000, "name": "COSMOS 2251 DEB", "group": "cosmos-2251-debris", "lat": 49.13820605136709, "lon": 22.459055667487437, "alt_km": 361.035892652676, "timestamp": "2025-12-02T07:10:09.512065+00:00", "meta": {"OBJECT_NAME": "COSMOS 2251 DEB", "OBJECT_ID": "1993-036AFY", "EPOCH": "2025-12-01T03:01:08.937696", "MEAN_MOTION": 15.64973748, "ECCENTRICITY": 0.00107373, "INCLINATION": 74.0059, "RA_OF_ASC_NODE": 224.4619, "ARG_OF_PERICENTER": 189.9912, "MEAN_ANOMALY": 170.1097, "EPHEMERIS_TYPE": 0, "CLASSIFICATION_TYPE": "U", "NORAD_CAT_ID": 35000, "ELEMENT_SET_NO": 999, "REV_AT_EPOCH": 88332, "BSTAR": 0.0058109544, "MEAN_MOTION_DOT": 0.00615456, "MEAN_MOTION_DDOT": 0}, "tle": {"line1": "1 35000U 93036AFY 25335.12579789  .00615456  00000+0  58110-2 0  9998", "line2": "2 35000  74.0059 224.4619 0010737 189.9912 170.1097 15.64973748883323"}}, "geometry": {"type": "Point", "coordinates": [22.459055667487437, 49.13820605136709]}}, {"type": "Feature", "properties": {"norad_id": 35012, "name": "COSMOS 2251 DEB", "group": "cosmos-2251-debris", "lat": 65.7684693132379, "lon": -88.32700517914496, "alt_km": 789.6627727607201, "timestamp": "2025-12-02T07:10:09.512075+00:00", "meta": {"OBJECT_NAME": "COSMOS 2251 DEB", "OBJECT_ID": "1993-036AFZ", "EPOCH": "2025-11-29T10:33:51.837120", "MEAN_MOTION": 14.45521065, "ECCENTRICITY": 0.0081636, "INCLINATION": 74.0181, "RA_OF_ASC_NODE": 136.5568, "ARG_OF_PERICENTER": 279.5143, "MEAN_ANOMALY": 79.6796, "EPHEMERIS_TYPE": 0, "CLASSIFICATION_TYPE": "U", "NORAD_CAT_ID": 35012, "ELEMENT_SET_NO": 999, "REV_AT_EPOCH": 87369, "BSTAR": 0.00015191388, "MEAN_MOTION_DOT": 5.29e-06, "MEAN_MOTION_DDOT": 0}, "tle": {"line1": "1 35012U 93036AFZ 25333.44018330  .00000529  00000+0  15191-3 0  9996", "line2": "2 35012  74.0181 136.5568 0081636 279.5143  79.6796 14.45521065873693"}}, "geometry": {"type": "Point", "coordinates": [-88.32700517914496, 65.7684693132379]}}, {"type": "Feature", "properties": {"norad_id": 35014, "name": "COSMOS 2251 DEB", "group": "cosmos-2251-debris", "lat": -8.066451464078174, "lon": -113.67808453126418, "alt_km": 645.4202820815053, "timestamp": "2025-12-02T07:10:09.512086+00:00", "meta": {"OBJECT_NAME": "COSMOS 2251 DEB", "OBJECT_ID": "1993-036AGB", "EPOCH": "2025-11-29T00:10:14.201184", "MEAN_MOTION": 14.74716562, "ECCENTRICITY": 0.00081798, "INCLINATION": 73.9988, "RA_OF_ASC_NODE": 70.4329, "ARG_OF_PERICENTER": 241.0886, "MEAN_ANOMALY": 118.9467, "EPHEMERIS_TYPE": 0, "CLASSIFICATION_TYPE": "U", "NORAD_CAT_ID": 35014, "ELEMENT_SET_NO": 999, "REV_AT_EPOCH": 71134, "BSTAR": 0.0017863262, "MEAN_MOTION_DOT": 0.00011934, "MEAN_MOTION_DDOT": 0}, "tle": {"line1": "1 35014U 93036AGB 25333.00710881  .00011934  00000+0  17863-2 0  9999", "line2": "2 35014  73.9988  70.4329 0008179 241.0886 118.9467 14.74716562711343"}}, "geometry": {"type": "Point", "coordinates": [-113.67808453126418, -8.066451464078174]}}]}